NORAD_CAT_ID,OBJECT_NAME,OBJECT_TYPE,EPOCH,MEAN_MOTION,ECCENTRICITY,INCLINATION,RA_OF_ASC_NODE,ARG_OF_PERICENTER,MEAN_ANOMALY,BSTAR,MEAN_MOTION_DOT,MEAN_MOTION_DDOT,TLE_LINE0,TLE_LINE1,TLE_LINE2,SEMIMAJOR_AXIS,PERIOD,APOGEE,PERIGEE,DECAYED
53911.0,STARLINK-5048,PAYLOAD,2024-03-10 04:43:14,15.08843859,0.0001213,53.2178,349.1223,90.1935,269.9196,6.749e-05,7.87e-06,0.0,0 STARLINK-5048,1 53911U 22119AB  24070.19669740  .00000787  00000-0  67490-4 0  9991,2 53911  53.2178 349.1223 0001213  90.1935 269.9196 15.08843859 81692,6917.869,95.437,540.573,538.894,0.0
53911.0,STARLINK-5048,PAYLOAD,2024-03-10 22:12:29,15.08837086,0.0001209,53.2179,345.8484,91.0496,269.0634,-3.5657e-05,-8.55e-06,0.0,0 STARLINK-5048,1 53911U 22119AB  24070.92534604 -.00000855  00000-0 -35657-4 0  9990,2 53911  53.2179 345.8484 0001209  91.0496 269.0634 15.08837086 81808,6917.889,95.438,540.591,538.918,0.0
53911.0,STARLINK-5048,PAYLOAD,2024-03-11 01:23:15,15.08846397,0.000129,53.2181,345.2583,93.6171,266.4968,-3.9848e-05,-9.22e-06,0.0,0 STARLINK-5048,1 53911U 22119AB  24071.05782078 -.00000922  00000-0 -39848-4 0  9996,2 53911  53.2181 345.2583 0001290  93.6171 266.4968 15.08846397 81405,6917.861,95.437,540.618,538.833,0.0
53911.0,STARLINK-5048,PAYLOAD,2024-03-11 10:55:34,15.08845853,0.0001262,53.2179,343.4734,90.2574,269.8563,-1.7317e-05,-5.64e-06,0.0,0 STARLINK-5048,1 53911U 22119AB  24071.45525977 -.00000564  00000-0 -17317-4 0  9992,2 53911  53.2179 343.4734 0001262  90.2574 269.8563 15.08845853 81885,6917.862,95.437,540.601,538.854,0.0
53911.0,STARLINK-5048,PAYLOAD,2024-03-11 18:52:30,15.08835863,0.0001596,53.22,341.9904,100.2201,259.8971,5.9358e-05,6.57e-06,0.0,0 STARLINK-5048,1 53911U 22119AB  24071.78646761  .00000657  00000-0  59358-4 0  9995,2 53911  53.2200 341.9904 0001596 100.2201 259.8971 15.08835863 81513,6917.893,95.438,540.862,538.654,0.0
53911.0,STARLINK-5048,PAYLOAD,2024-03-12 10:46:22,15.08840594,0.0001517,53.2191,339.0134,83.3372,276.7793,1.3741e-05,-6.9e-07,0.0,0 STARLINK-5048,1 53911U 22119AB  24072.44886621 -.00000069  00000-0  13741-4 0  9994,2 53911  53.2191 339.0134 0001517  83.3372 276.7793 15.08840594 82033,6917.879,95.438,540.793,538.694,0.0
53911.0,STARLINK-5048,PAYLOAD,2024-03-13 02:40:14,15.08833093,0.0001471,53.2186,336.039,84.2195,275.8965,1.7417e-05,-1.1e-07,0.0,0 STARLINK-5048,1 53911U 22119AB  24073.11127665 -.00000011  00000-0  17417-4 0  9996,2 53911  53.2186 336.0390 0001471  84.2195 275.8965 15.08833093 81711,6917.902,95.438,540.784,538.749,0.0
53911.0,STARLINK-5048,PAYLOAD,2024-03-13 10:37:09,15.08841319,0.0001481,53.219,334.5532,87.8697,272.2465,8.8361e-05,1.119e-05,0.0,0 STARLINK-5048,1 53911U 22119AB  24073.44247038  .00001119  00000-0  88361-4 0  9994,2 53911  53.2190 334.5532 0001481  87.8697 272.2465 15.08841319 81765,6917.876,95.437,540.766,538.717,0.0
53911.0,STARLINK-5048,PAYLOAD,2024-03-13 21:44:50,15.08851065,0.0001601,53.2177,332.4727,87.0154,273.1021,0.00021282,3.102e-05,0.0,0 STARLINK-5048,1 53911U 22119AB  24073.90614168  .00003102  00000-0  21282-3 0  9999,2 53911  53.2177 332.4727 0001601  87.0154 273.1021 15.08851065 82259,6917.847,95.437,540.819,538.604,0.0
53911.0,STARLINK-5048,PAYLOAD,2024-03-14 02:30:59,15.08863556,0.0001522,53.2173,331.5804,86.4174,273.6992,0.00042341,6.461e-05,0.0,0 STARLINK-5048,1 53911U 22119AB  24074.10485880  .00006461  00000-0  42341-3 0  9999,2 53911  53.2173 331.5804 0001522  86.4174 273.6992 15.08863556 81864,6917.808,95.436,540.726,538.62,0.0
53911.0,STARLINK-5048,PAYLOAD,2024-03-14 21:35:37,15.0884497,0.0001822,53.2177,328.006,120.2858,239.8315,0.00014353,1.997e-05,0.0,0 STARLINK-5048,1 53911U 22119AB  24074.89974443  .00001997  00000-0  14353-3 0  9994,2 53911  53.2177 328.0060 0001822 120.2858 239.8315 15.08844970 82405,6917.865,95.437,540.991,538.47,0.0
53911.0,STARLINK-5048,PAYLOAD,2024-03-14 23:11:01,15.08845399,0.0001762,53.2178,327.7078,120.4282,239.6884,0.000131,1.798e-05,0.0,0 STARLINK-5048,1 53911U 22119AB  24074.96598381  .00001798  00000-0  13100-3 0  9993,2 53911  53.2178 327.7078 0001762 120.4282 239.6884 15.08845399 81995,6917.864,95.437,540.948,538.51,0.0
53911.0,STARLINK-5048,PAYLOAD,2024-03-15 23:01:48,15.08847418,0.0001473,53.2163,323.2574,82.077,278.0389,6.4139e-05,7.33e-06,0.0,0 STARLINK-5048,1 53911U 22119AB  24075.95958374  .00000733  00000-0  64139-4 0  9992,2 53911  53.2163 323.2574 0001473  82.0770 278.0389 15.08847418 82144,6917.858,95.437,540.742,538.704,0.0
53911.0,STARLINK-5048,PAYLOAD,2024-03-16 19:41:49,15.08836875,0.0001384,53.2167,319.3855,101.0722,259.0425,1.5079e-05,-4.8e-07,0.0,0 STARLINK-5048,1 53911U 22119AB  24076.82070746 -.00000048  00000-0  15079-4 0  9996,2 53911  53.2167 319.3855 0001384 101.0722 259.0425 15.08836875 82275,6917.89,95.438,540.712,538.798,0.0
53911.0,STARLINK-5048,PAYLOAD,2024-03-16 22:52:35,15.08837772,0.0001373,53.2176,318.7909,101.3194,258.7953,2.771e-05,1.53e-06,0.0,0 STARLINK-5048,1 53911U 22119AB  24076.95318843  .00000153  00000-0  27710-4 0  9994,2 53911  53.2176 318.7909 0001373 101.3194 258.7953 15.08837772 82710,6917.887,95.438,540.702,538.802,0.0
53911.0,STARLINK-5048,PAYLOAD,2024-03-17 02:03:21,15.08838094,0.0001358,53.2175,318.1957,100.324,259.7905,2.5024e-05,1.1e-06,0.0,0 STARLINK-5048,1 53911U 22119AB  24077.08566819  .00000110  00000-0  25024-4 0  9996,2 53911  53.2175 318.1957 0001358 100.3240 259.7905 15.08838094 82738,6917.886,95.438,540.691,538.812,0.0
53911.0,STARLINK-5048,PAYLOAD,2024-03-17 21:07:59,15.08833511,0.0001354,53.2177,314.6271,97.7617,262.3529,7.4897e-05,9.04e-06,0.0,0 STARLINK-5048,1 53911U 22119AB  24077.88055113  .00000904  00000-0  74897-4 0  9997,2 53911  53.2177 314.6271 0001354  97.7617 262.3529 15.08833511 82431,6917.9,95.438,540.702,538.829,0.0
53911.0,STARLINK-5048,PAYLOAD,2024-03-17 22:43:22,15.08834398,0.0001373,53.2178,314.3297,97.8076,262.3072,8.0135e-05,9.87e-06,0.0,0 STARLINK-5048,1 53911U 22119AB  24077.94679072  .00000987  00000-0  80135-4 0  9993,2 53911  53.2178 314.3297 0001373  97.8076 262.3072 15.08834398 82862,6917.898,95.438,540.712,538.813,0.0
53911.0,STARLINK-5048,PAYLOAD,2024-03-18 22:34:09,15.08839097,0.0001359,53.2178,309.8693,97.51,262.6046,0.00010277,1.348e-05,0.0,0 STARLINK-5048,1 53911U 22119AB  24078.94039007  .00001348  00000-0  10277-3 0  9993,2 53911  53.2178 309.8693 0001359  97.5100 262.6046 15.08839097 83013,6917.883,95.438,540.688,538.808,0.0
53911.0,STARLINK-5048,PAYLOAD,2024-03-19 01:44:55,15.08841749,0.0001347,53.2176,309.2735,99.0881,261.0264,0.00012051,1.631e-05,0.0,0 STARLINK-5048,1 53911U 22119AB  24079.07286794  .00001631  00000-0  12051-3 0  9992,2 53911  53.2176 309.2735 0001347  99.0881 261.0264 15.08841749 82619,6917.875,95.437,540.672,538.808,0.0
53911.0,STARLINK-5048,PAYLOAD,2024-03-20 00:00:19,15.08851421,0.0001384,53.2181,305.108,89.1888,270.9263,0.00017733,2.536e-05,0.0,0 STARLINK-5048,1 53911U 22119AB  24080.00022159  .00002536  00000-0  17733-3 0  9997,2 53911  53.2181 305.1080 0001384  89.1888 270.9263 15.08851421 83179,6917.845,95.437,540.668,538.753,0.0
53911.0,STARLINK-5048,PAYLOAD,2024-03-20 20:40:20,15.08836286,0.0001804,53.2169,301.2435,136.864,223.2494,-3.6221e-05,-8.64e-06,0.0,0 STARLINK-5048,1 53911U 22119AB  24080.86134965 -.00000864  00000-0 -36221-4 0  9998,2 53911  53.2169 301.2435 0001804 136.8640 223.2494 15.08836286 82885,6917.892,95.438,541.005,538.509,0.0
53911.0,STARLINK-5048,PAYLOAD,2024-03-20 22:15:44,15.08836162,0.0001449,53.2178,300.9453,83.7625,276.3532,-1.2575e-05,-4.88e-06,0.0,0 STARLINK-5048,1 53911U 22119AB  24080.92759365 -.00000488  00000-0 -12575-4 0  9990,2 53911  53.2178 300.9453 0001449  83.7625 276.3532 15.08836162 83313,6917.892,95.438,540.76,538.755,0.0
53911.0,STARLINK-5048,PAYLOAD,2024-03-21 07:48:02,15.08836372,0.0001356,53.2173,299.162,101.8771,258.2373,8.9448e-06,-1.46e-06,0.0,0 STARLINK-5048,1 53911U 22119AB  24081.32503415 -.00000146  00000-0  89448-5 0  9992,2 53911  53.2173 299.1620 0001356 101.8771 258.2373 15.08836372 83375,6917.891,95.438,540.695,538.818,0.0
53911.0,STARLINK-5048,PAYLOAD,2024-03-21 20:31:07,15.08849076,0.0001299,53.2165,296.7849,95.4569,264.6572,0.00018137,2.6e-05,0.0,0 STARLINK-5048,1 53911U 22119AB  24081.85494991  .00002600  00000-0  18137-3 0  9999,2 53911  53.2165 296.7849 0001299  95.4569 264.6572 15.08849076 83457,6917.853,95.437,540.616,538.819,0.0
53911.0,STARLINK-5048,PAYLOAD,2024-03-22 20:21:54,15.08850367,0.0001209,53.2148,292.3286,92.6661,267.4469,0.00033849,5.105e-05,0.0,0 STARLINK-5048,1 53911U 22119AB  24082.84855068  .00005105  00000-0  33849-3 0  9995,2 53911  53.2148 292.3286 0001209  92.6661 267.4469 15.08850367 83189,6917.849,95.437,540.55,538.877,0.0
53911.0,STARLINK-5048,PAYLOAD,2024-03-23 20:12:42,15.08841145,0.0001368,53.2155,287.8647,105.2811,254.8333,9.3757e-05,1.205e-05,0.0,0 STARLINK-5048,1 53911U 22119AB  24083.84215449  .00001205  00000-0  93757-4 0  9991,2 53911  53.2155 287.8647 0001368 105.2811 254.8333 15.08841145 83332,6917.877,95.437,540.688,538.796,0.0
53911.0,STARLINK-5048,PAYLOAD,2024-03-23 23:23:28,15.08843564,0.0001303,53.2156,287.2689,105.2989,254.8147,0.00012819,1.753e-05,0.0,0 STARLINK-5048,1 53911U 22119AB  24083.97463282  .00001753  00000-0  12819-3 0  9992,2 53911  53.2156 287.2689 0001303 105.2989 254.8147 15.08843564 83776,6917.869,95.437,540.636,538.833,0.0
53911.0,STARLINK-5048,PAYLOAD,2024-03-24 20:03:29,15.08853415,0.000138,53.216,283.4047,80.3833,279.7315,0.00042728,6.521e-05,0.0,0 STARLINK-5048,1 53911U 22119AB  24084.83575529  .00006521  00000-0  42728-3 0  9996,2 53911  53.2160 283.4047 0001380  80.3833 279.7315 15.08853415 83907,6917.839,95.437,540.659,538.75,0.0
53911.0,STARLINK-5048,PAYLOAD,2024-03-25 13:32:44,15.08849271,0.0002179,53.2158,280.133,83.2092,276.9148,0.00036373,5.507e-05,0.0,0 STARLINK-5048,1 53911U 22119AB  24085.56439817  .00005507  00000-0  36373-3 0  9998,2 53911  53.2158 280.1330 0002179  83.2092 276.9148 15.08849271 83592,6917.852,95.437,541.224,538.21,0.0
